STARLINK-32700          
1 62311U 24239L   26068.63265652  .00033323  00000+0  11327-2 0  9999
2 62311  53.1610 181.5169 0001212  59.4537 300.6583 15.30183799 69546
TEVEL2-1                
1 63217U 25052H   26068.64782323  .00020683  00000+0  70600-3 0  9994
2 63217  97.3991 324.7682 0004767 104.8919 255.2849 15.30341923 54855
